SL-3 R/B                
1 13403U 82079B   26046.81176336  .00007276  00000+0  29290-3 0  9996
2 13403  81.1442 218.9036 0024230 239.5370 120.3470 15.24461171374364
SL-14 R/B               
1 13553U 82092B   26046.77876963  .00000571  00000+0  61306-4 0  9991
2 13553  82.5709 161.8871 0020729  18.2282  96.2312 14.86642413325670
SL-3 R/B                
1 13819U 83010B   26046.62431821  .00017815  00000+0  36773-3 0  9999
2 13819  81.1024  29.2814 0018414 120.4070 239.8998 15.45539475354534
SL-3 R/B                
1 14208U 83075B   26046.76304067  .00013618  00000+0  36576-3 0  9997
2 14208  97.6128  50.5223 0020236 312.2105  47.7421 15.37847387326788
COSMOS 1536             
1 14699U 84013A   26046.71939198  .00006125  00000+0  25453-3 0  9995
2 14699  82.5467 129.6814 0014255   6.1253 354.0155 15.23522160269274
SL-14 R/B               
1 14820U 84027B   26046.60630484  .00000466  00000+0  50424-4 0  9999
2 14820  82.5389 265.7298 0019173  49.8291 310.4600 14.85953954244350
SL-8 R/B                
1 15483U 85006B   26046.81041023  .00000219  00000+0  81181-4 0  9991
2 15483  74.0461 301.4094 0019238 223.6480 200.1825 14.37772344150886
SL-12 R/B(2)            
1 15772U 85042D   26046.61372403  .00000026  00000+0  32902-4 0  9992
2 15772  71.1084 134.3698 0034480 163.7019 299.1803 14.21976231111253
SL-14 R/B               
1 15945U 85069B   26046.46312980  .00000655  00000+0  71376-4 0  9996
2 15945  82.5244  45.8362 0017122 266.1339  93.7920 14.86406646169531
SL-16 R/B               
1 16182U 85097B   26046.82343411 -.00000176  00000+0 -64382-4 0  9993
2 16182  71.0024 186.5845 0009704 285.0947 183.1515 14.16594640 84136
SL-14 R/B               
1 16496U 86006B   26046.71523072  .00000709  00000+0  72719-4 0  9996
2 16496  82.5254 280.4221 0076296 346.7437  13.1772 14.86785699145944
COSMOS 1743             
1 16719U 86034A   26046.54352441  .00038249  00000+0  52950-3 0  9990
2 16719  82.5315  97.0446 0004525  31.9529 328.2000 15.56917366176801
