CCSDS_OMM_VERS = 2.0
CREATION_DATE  = 
ORIGINATOR     = 

OBJECT_NAME    = SL-3 R/B
OBJECT_ID      = 1982-079B
CENTER_NAME    = EARTH
REF_FRAME      = TEME
TIME_SYSTEM    = UTC
MEAN_ELEMENT_THEORY = SGP/SGP4

EPOCH          = 2026-02-15T19:28:56.354304
MEAN_MOTION    = 15.24461171
ECCENTRICITY   = .002423
INCLINATION    = 81.1442
RA_OF_ASC_NODE = 218.9036
ARG_OF_PERICENTER = 239.5370
MEAN_ANOMALY   = 120.3470

EPHEMERIS_TYPE = 0
CLASSIFICATION_TYPE = U
NORAD_CAT_ID   = 13403
ELEMENT_SET_NO = 999
REV_AT_EPOCH   = 37436
BSTAR          = .2929E-3
MEAN_MOTION_DOT = .7276E-4
MEAN_MOTION_DDOT = 0

CCSDS_OMM_VERS = 2.0
CREATION_DATE  = 
ORIGINATOR     = 

OBJECT_NAME    = SL-14 R/B
OBJECT_ID      = 1982-092B
CENTER_NAME    = EARTH
REF_FRAME      = TEME
TIME_SYSTEM    = UTC
MEAN_ELEMENT_THEORY = SGP/SGP4

EPOCH          = 2026-02-15T18:41:25.696032
MEAN_MOTION    = 14.86642413
ECCENTRICITY   = .0020729
INCLINATION    = 82.5709
RA_OF_ASC_NODE = 161.8871
ARG_OF_PERICENTER = 18.2282
MEAN_ANOMALY   = 96.2312

EPHEMERIS_TYPE = 0
CLASSIFICATION_TYPE = U
NORAD_CAT_ID   = 13553
ELEMENT_SET_NO = 999
REV_AT_EPOCH   = 32567
BSTAR          = .61306E-4
MEAN_MOTION_DOT = .571E-5
MEAN_MOTION_DDOT = 0

CCSDS_OMM_VERS = 2.0
CREATION_DATE  = 
ORIGINATOR     = 

OBJECT_NAME    = SL-3 R/B
OBJECT_ID      = 1983-010B
CENTER_NAME    = EARTH
REF_FRAME      = TEME
TIME_SYSTEM    = UTC
MEAN_ELEMENT_THEORY = SGP/SGP4

EPOCH          = 2026-02-15T14:59:01.093344
MEAN_MOTION    = 15.45539475
ECCENTRICITY   = .0018414
INCLINATION    = 81.1024
RA_OF_ASC_NODE = 29.2814
ARG_OF_PERICENTER = 120.4070
MEAN_ANOMALY   = 239.8998

EPHEMERIS_TYPE = 0
CLASSIFICATION_TYPE = U
NORAD_CAT_ID   = 13819
ELEMENT_SET_NO = 999
REV_AT_EPOCH   = 35453
BSTAR          = .36773E-3
MEAN_MOTION_DOT = .17815E-3
MEAN_MOTION_DDOT = 0

CCSDS_OMM_VERS = 2.0
CREATION_DATE  = 
ORIGINATOR     = 

OBJECT_NAME    = SL-3 R/B
OBJECT_ID      = 1983-075B
CENTER_NAME    = EARTH
REF_FRAME      = TEME
TIME_SYSTEM    = UTC
MEAN_ELEMENT_THEORY = SGP/SGP4

EPOCH          = 2026-02-15T18:18:46.713888
MEAN_MOTION    = 15.37847387
ECCENTRICITY   = .0020236
INCLINATION    = 97.6128
RA_OF_ASC_NODE = 50.5223
ARG_OF_PERICENTER = 312.2105
MEAN_ANOMALY   = 47.7421

EPHEMERIS_TYPE = 0
CLASSIFICATION_TYPE = U
NORAD_CAT_ID   = 14208
ELEMENT_SET_NO = 999
REV_AT_EPOCH   = 32678
BSTAR          = .36576E-3
MEAN_MOTION_DOT = .13618E-3
MEAN_MOTION_DDOT = 0

CCSDS_OMM_VERS = 2.0
CREATION_DATE  = 
ORIGINATOR     = 

OBJECT_NAME    = COSMOS 1536
OBJECT_ID      = 1984-013A
CENTER_NAME    = EARTH
REF_FRAME      = TEME
TIME_SYSTEM    = UTC
MEAN_ELEMENT_THEORY = SGP/SGP4

EPOCH          = 2026-02-15T17:15:55.467072
MEAN_MOTION    = 15.23522160
ECCENTRICITY   = .0014255
INCLINATION    = 82.5467
RA_OF_ASC_NODE = 129.6814
ARG_OF_PERICENTER = 6.1253
MEAN_ANOMALY   = 354.0155

EPHEMERIS_TYPE = 0
CLASSIFICATION_TYPE = U
NORAD_CAT_ID   = 14699
ELEMENT_SET_NO = 999
REV_AT_EPOCH   = 26927
BSTAR          = .25453E-3
MEAN_MOTION_DOT = .6125E-4
MEAN_MOTION_DDOT = 0

CCSDS_OMM_VERS = 2.0
CREATION_DATE  = 
ORIGINATOR     = 

OBJECT_NAME    = SL-14 R/B
OBJECT_ID      = 1984-027B
CENTER_NAME    = EARTH
REF_FRAME      = TEME
TIME_SYSTEM    = UTC
MEAN_ELEMENT_THEORY = SGP/SGP4

EPOCH          = 2026-02-15T14:33:04.738176
MEAN_MOTION    = 14.85953954
ECCENTRICITY   = .0019173
INCLINATION    = 82.5389
RA_OF_ASC_NODE = 265.7298
ARG_OF_PERICENTER = 49.8291
MEAN_ANOMALY   = 310.4600

EPHEMERIS_TYPE = 0
CLASSIFICATION_TYPE = U
NORAD_CAT_ID   = 14820
ELEMENT_SET_NO = 999
REV_AT_EPOCH   = 24435
BSTAR          = .50424E-4
MEAN_MOTION_DOT = .466E-5
MEAN_MOTION_DDOT = 0

CCSDS_OMM_VERS = 2.0
CREATION_DATE  = 
ORIGINATOR     = 

OBJECT_NAME    = SL-8 R/B
OBJECT_ID      = 1985-006B
CENTER_NAME    = EARTH
REF_FRAME      = TEME
TIME_SYSTEM    = UTC
MEAN_ELEMENT_THEORY = SGP/SGP4

EPOCH          = 2026-02-15T19:26:59.443872
MEAN_MOTION    = 14.37772344
ECCENTRICITY   = .0019238
INCLINATION    = 74.0461
RA_OF_ASC_NODE = 301.4094
ARG_OF_PERICENTER = 223.6480
MEAN_ANOMALY   = 200.1825

EPHEMERIS_TYPE = 0
CLASSIFICATION_TYPE = U
NORAD_CAT_ID   = 15483
ELEMENT_SET_NO = 999
REV_AT_EPOCH   = 15088
BSTAR          = .81181E-4
MEAN_MOTION_DOT = .219E-5
MEAN_MOTION_DDOT = 0

CCSDS_OMM_VERS = 2.0
CREATION_DATE  = 
ORIGINATOR     = 

OBJECT_NAME    = SL-12 R/B(2)
OBJECT_ID      = 1985-042D
CENTER_NAME    = EARTH
REF_FRAME      = TEME
TIME_SYSTEM    = UTC
MEAN_ELEMENT_THEORY = SGP/SGP4

EPOCH          = 2026-02-15T14:43:45.756192
MEAN_MOTION    = 14.21976231
ECCENTRICITY   = .003448
INCLINATION    = 71.1084
RA_OF_ASC_NODE = 134.3698
ARG_OF_PERICENTER = 163.7019
MEAN_ANOMALY   = 299.1803

EPHEMERIS_TYPE = 0
CLASSIFICATION_TYPE = U
NORAD_CAT_ID   = 15772
ELEMENT_SET_NO = 999
REV_AT_EPOCH   = 11125
BSTAR          = .32902E-4
MEAN_MOTION_DOT = .26E-6
MEAN_MOTION_DDOT = 0

CCSDS_OMM_VERS = 2.0
CREATION_DATE  = 
ORIGINATOR     = 

OBJECT_NAME    = SL-14 R/B
OBJECT_ID      = 1985-069B
CENTER_NAME    = EARTH
REF_FRAME      = TEME
TIME_SYSTEM    = UTC
MEAN_ELEMENT_THEORY = SGP/SGP4

EPOCH          = 2026-02-15T11:06:54.414720
MEAN_MOTION    = 14.86406646
ECCENTRICITY   = .00171221
INCLINATION    = 82.5244
RA_OF_ASC_NODE = 45.8362
ARG_OF_PERICENTER = 266.1339
MEAN_ANOMALY   = 93.7920

EPHEMERIS_TYPE = 0
CLASSIFICATION_TYPE = U
NORAD_CAT_ID   = 15945
ELEMENT_SET_NO = 999
REV_AT_EPOCH   = 16953
BSTAR          = .71376239E-4
MEAN_MOTION_DOT = .655E-5
MEAN_MOTION_DDOT = 0

CCSDS_OMM_VERS = 2.0
CREATION_DATE  = 
ORIGINATOR     = 

OBJECT_NAME    = SL-16 R/B
OBJECT_ID      = 1985-097B
CENTER_NAME    = EARTH
REF_FRAME      = TEME
TIME_SYSTEM    = UTC
MEAN_ELEMENT_THEORY = SGP/SGP4

EPOCH          = 2026-02-15T19:45:44.707104
MEAN_MOTION    = 14.16594640
ECCENTRICITY   = .0009704
INCLINATION    = 71.0024
RA_OF_ASC_NODE = 186.5845
ARG_OF_PERICENTER = 285.0947
MEAN_ANOMALY   = 183.1515

EPHEMERIS_TYPE = 0
CLASSIFICATION_TYPE = U
NORAD_CAT_ID   = 16182
ELEMENT_SET_NO = 999
REV_AT_EPOCH   = 8413
BSTAR          = -.64382E-4
MEAN_MOTION_DOT = -.176E-5
MEAN_MOTION_DDOT = 0

CCSDS_OMM_VERS = 2.0
CREATION_DATE  = 
ORIGINATOR     = 

OBJECT_NAME    = SL-14 R/B
OBJECT_ID      = 1986-006B
CENTER_NAME    = EARTH
REF_FRAME      = TEME
TIME_SYSTEM    = UTC
MEAN_ELEMENT_THEORY = SGP/SGP4

EPOCH          = 2026-02-15T17:09:55.934208
MEAN_MOTION    = 14.86785699
ECCENTRICITY   = .0076296
INCLINATION    = 82.5254
RA_OF_ASC_NODE = 280.4221
ARG_OF_PERICENTER = 346.7437
MEAN_ANOMALY   = 13.1772

EPHEMERIS_TYPE = 0
CLASSIFICATION_TYPE = U
NORAD_CAT_ID   = 16496
ELEMENT_SET_NO = 999
REV_AT_EPOCH   = 14594
BSTAR          = .72719E-4
MEAN_MOTION_DOT = .709E-5
MEAN_MOTION_DDOT = 0

CCSDS_OMM_VERS = 2.0
CREATION_DATE  = 
ORIGINATOR     = 

OBJECT_NAME    = COSMOS 1743
OBJECT_ID      = 1986-034A
CENTER_NAME    = EARTH
REF_FRAME      = TEME
TIME_SYSTEM    = UTC
MEAN_ELEMENT_THEORY = SGP/SGP4

EPOCH          = 2026-02-15T13:02:40.509024
MEAN_MOTION    = 15.56917366
ECCENTRICITY   = .0004525
INCLINATION    = 82.5315
RA_OF_ASC_NODE = 97.0446
ARG_OF_PERICENTER = 31.9529
MEAN_ANOMALY   = 328.2000

EPHEMERIS_TYPE = 0
CLASSIFICATION_TYPE = U
NORAD_CAT_ID   = 16719
ELEMENT_SET_NO = 999
REV_AT_EPOCH   = 17680
BSTAR          = .5295E-3
MEAN_MOTION_DOT = .38249E-3
MEAN_MOTION_DDOT = 0

